[{"OBJECT_NAME":"STARLINK-30203","OBJECT_ID":"2023-113D","EPOCH":"2026-03-09T22:00:01.999584","MEAN_MOTION":15.26747693,"ECCENTRICITY":0.00013291,"INCLINATION":43.001,"RA_OF_ASC_NODE":14.295,"ARG_OF_PERICENTER":263.4771,"MEAN_ANOMALY":169.5475,"EPHEMERIS_TYPE":0,"CLASSIFICATION_TYPE":"U","NORAD_CAT_ID":57498,"ELEMENT_SET_NO":999,"REV_AT_EPOCH":578,"BSTAR":0.00023344295,"MEAN_MOTION_DOT":6.009e-5,"MEAN_MOTION_DDOT":0},{"OBJECT_NAME":"GESAT GEN1","OBJECT_ID":"2025-009D","EPOCH":"2026-03-09T17:26:20.087232","MEAN_MOTION":15.26847505,"ECCENTRICITY":8.879e-5,"INCLINATION":97.4058,"RA_OF_ASC_NODE":151.4598,"ARG_OF_PERICENTER":98.3547,"MEAN_ANOMALY":261.7793,"EPHEMERIS_TYPE":0,"CLASSIFICATION_TYPE":"U","NORAD_CAT_ID":62612,"ELEMENT_SET_NO":999,"REV_AT_EPOCH":6373,"BSTAR":0.00038326131,"MEAN_MOTION_DOT":0.00010041,"MEAN_MOTION_DDOT":0}]
